STARLINK-5315           
1 55309U 23010AS  26198.92382398  .00000108  00000+0  16825-4 0  9992
2 55309  69.9996  35.9477 0002778 269.1587  90.9254 14.98330912193281
STARLINK-5309           
1 55310U 23010AT  26198.89464372  .00000263  00000+0  29880-4 0  9990
2 55310  69.9995  36.2458 0003039 267.0975  92.9836 14.98317423193273
STARLINK-5312           
1 55311U 23010AU  26198.89880526  .00000462  00000+0  46511-4 0  9995
2 55311  69.9998  36.2605 0002867 268.7022  91.3809 14.98334017194148
STARLINK-5296           
1 55312U 23010AV  26198.93633830 -.00000148  00000+0 -46419-5 0  9996
2 55312  69.9998  35.8773 0002856 270.9177  89.1654 14.98330597194135
STARLINK-5313           
1 55313U 23010AW  26198.88628839  .00001913  00000+0  16816-3 0  9999
2 55313  69.9996  36.2162 0002565 269.2191  90.8674 14.98312237194148
STARLINK-5305           
1 55314U 23010AX  26198.95723272  .00000375  00000+0  39229-4 0  9990
2 55314  69.9996  36.0613 0002953 273.1731  86.9091 14.98321586194150
STARLINK-4623           
1 55315U 23010AY  26198.90320508  .00000007  00000+0  83767-5 0  9990
2 55315  69.9993  56.1505 0002678 270.2278  89.8575 14.98328982192760
STARLINK-5257           
1 55316U 23010AZ  26198.92800007  .00000305  00000+0  33328-4 0  9998
2 55316  69.9995  35.9758 0002699 267.8250  92.2600 14.98330687194150
STARLINK-5265           
1 55317U 23010BA  26198.94887220 -.00000033  00000+0  50141-5 0  9995
2 55317  69.9996  36.0608 0002723 269.7065  90.3782 14.98327934194152
STARLINK-5180           
1 55318U 23010BB  26198.94469683  .00000245  00000+0  28315-4 0  9996
2 55318  69.9994  36.0181 0002466 266.0953  93.9925 14.98333432194155
STARLINK-5196           
1 55319U 23010BC  26198.94052241  .00000008  00000+0  84974-5 0  9996
2 55319  69.9996  36.0044 0002716 263.2305  96.8545 14.98328610194156
HAWK-6B                 
1 55324U 23011A   26198.93568646  .00002570  00000+0  11461-3 0  9998
2 55324  40.4976 172.6890 0004472 254.5549 105.4766 15.23169163192531
HAWK-6C                 
1 55326U 23011C   26198.93505399  .00002298  00000+0  10335-3 0  9992
2 55326  40.4966 169.5282 0004957 248.7068 111.3212 15.23168817192549
HAWK-6A                 
1 55327U 23011D   26198.34499843  .00002348  00000+0  10543-3 0  9991
2 55327  40.4975 174.5982 0004531 242.4920 117.5429 15.23165655192454
STARLINK-5492           
1 55331U 23013A   26198.94721122  .00000221  00000+0  17571-4 0  9999
2 55331  43.0024 287.8737 0001211 273.0808  86.9905 15.27575237192673
STARLINK-5491           
1 55332U 23013B   26198.90031479  .00000599  00000+0  31282-4 0  9998
2 55332  43.0023 273.6507 0001321 268.3054  91.7646 15.27575828191753
STARLINK-5493           
1 55333U 23013C   26198.95492087 -.00000014  00000+0  90198-5 0  9995
2 55333  43.0033 287.9306 0001335 276.4550  83.6149 15.27575800191596
STARLINK-5652           
1 55334U 23013D   26198.55873124 -.00000513  00000+0 -91372-5 0  9997
2 55334  43.0004 290.0145 0000797 268.3111  91.7649 15.27574484191531
STARLINK-5660           
1 55335U 23013E   26198.95877914 -.00000577  00000+0 -11436-4 0  9995
2 55335  43.0035 287.9572 0001171 276.8518  83.2200 15.27572300191597
STARLINK-5655           
1 55336U 23013F   26198.55538150 -.00000354  00000+0 -33249-5 0  9998
2 55336  43.0029 275.2826 0001410 268.0656  92.0035 15.27576786191704
STARLINK-5667           
1 55337U 23013G   26198.19263855  .00000284  00000+0  19869-4 0  9997
2 55337  43.0031 277.7644 0001802 273.2152  86.8493 15.27572135191643
STARLINK-5658           
1 55338U 23013H   26198.24336833  .00000436  00000+0  25351-4 0  9993
2 55338  43.0009 292.0445 0000965 239.6986 120.3770 15.27593409191489
STARLINK-5671           
1 55339U 23013J   26198.95699864 -.00000641  00000+0 -13774-4 0  9994
2 55339  43.0017 291.3547 0001144 276.3380  83.7342 15.27575692191559
STARLINK-5675           
1 55340U 23013K   26198.33432281 -.00000578  00000+0 -11460-4 0  9995
2 55340  43.0025 291.0126 0001638 273.7964  86.2701 15.27576697191505
STARLINK-5670           
1 55341U 23013L   26198.63827037  .00000439  00000+0  25502-4 0  9992
2 55341  43.0034 289.8500 0001675 278.3469  81.7193 15.27567963191544
STARLINK-5657           
1 55342U 23013M   26198.31519161 -.00000451  00000+0 -68573-5 0  9996
2 55342  43.0050 291.7235 0001764 287.7483  72.3176 15.27577752191497
STARLINK-5661           
1 55343U 23013N   26198.32404220  .00000074  00000+0  12238-4 0  9992
2 55343  43.0022 290.9321 0001704 272.3336  87.7320 15.27574258191506
STARLINK-5653           
1 55345U 23013Q   26198.90416917 -.00000336  00000+0 -26882-5 0  9998
2 55345  43.0013 273.6685 0001209 273.2060  86.8654 15.27576519191752
STARLINK-5631           
1 55346U 23013R   26198.65483030 -.00000059  00000+0  73851-5 0  9990
2 55346  43.0033 289.1101 0001828 276.6088  83.4555 15.27575117191558
STARLINK-5663           
1 55347U 23013S   26198.58816822 -.00001027  00000+0 -27806-4 0  9997
2 55347  43.0021 289.4713 0001877 273.5796  86.4841 15.27561975191541
