OBJECT_NAME,OBJECT_ID,EPOCH,MEAN_MOTION,ECCENTRICITY,INCLINATION,RA_OF_ASC_NODE,ARG_OF_PERICENTER,MEAN_ANOMALY,EPHEMERIS_TYPE,CLASSIFICATION_TYPE,NORAD_CAT_ID,ELEMENT_SET_NO,REV_AT_EPOCH,BSTAR,MEAN_MOTION_DOT,MEAN_MOTION_DDOT
STARLINK-5315,2023-010AS,2026-07-17T22:10:18.391872,14.98330912,.0002778,69.9996,35.9477,269.1587,90.9254,0,U,55309,999,19328,.16825491E-4,.108E-5,0
STARLINK-5309,2023-010AT,2026-07-17T21:28:17.217408,14.98317423,.00030392,69.9995,36.2458,267.0975,92.9836,0,U,55310,999,19327,.29880392E-4,.263E-5,0
STARLINK-5312,2023-010AU,2026-07-17T21:34:16.774464,14.98334017,.00028679,69.9998,36.2605,268.7022,91.3809,0,U,55311,999,19414,.46510567E-4,.462E-5,0
STARLINK-5296,2023-010AV,2026-07-17T22:28:19.629120,14.98330597,.00028567,69.9998,35.8773,270.9177,89.1654,0,U,55312,999,19413,-.4641919E-5,-.148E-5,0
STARLINK-5313,2023-010AW,2026-07-17T21:16:15.316896,14.98312237,.0002565,69.9996,36.2162,269.2191,90.8674,0,U,55313,999,19414,.16816304E-3,.1913E-4,0
STARLINK-5305,2023-010AX,2026-07-17T22:58:24.907008,14.98321586,.00029536,69.9996,36.0613,273.1731,86.9091,0,U,55314,999,19415,.39228824E-4,.375E-5,0
STARLINK-4623,2023-010AY,2026-07-17T21:40:36.918912,14.98328982,.00026788,69.9993,56.1505,270.2278,89.8575,0,U,55315,999,19276,.8376693E-5,.7E-7,0
STARLINK-5257,2023-010AZ,2026-07-17T22:16:19.206048,14.98330687,.00026999,69.9995,35.9758,267.8250,92.2600,0,U,55316,999,19415,.33328079E-4,.305E-5,0
STARLINK-5265,2023-010BA,2026-07-17T22:46:22.558080,14.98327934,.0002723,69.9996,36.0608,269.7065,90.3782,0,U,55317,999,19415,.5014051E-5,-.33E-6,0
STARLINK-5180,2023-010BB,2026-07-17T22:40:21.806112,14.98333432,.00024661,69.9994,36.0181,266.0953,93.9925,0,U,55318,999,19415,.28315206E-4,.245E-5,0
STARLINK-5196,2023-010BC,2026-07-17T22:34:21.136224,14.98328610,.00027169,69.9996,36.0044,263.2305,96.8545,0,U,55319,999,19415,.8497411E-5,.8E-7,0
HAWK-6B,2023-011A,2026-07-17T22:27:23.310144,15.23169163,.00044723,40.4976,172.6890,254.5549,105.4766,0,U,55324,999,19253,.11460971E-3,.257E-4,0
HAWK-6C,2023-011C,2026-07-17T22:26:28.664736,15.23168817,.00049575,40.4966,169.5282,248.7068,111.3212,0,U,55326,999,19254,.10334933E-3,.2298E-4,0
HAWK-6A,2023-011D,2026-07-17T08:16:47.864352,15.23165655,.0004531,40.4975,174.5982,242.4920,117.5429,0,U,55327,999,19245,.10543E-3,.2348E-4,0
STARLINK-5492,2023-013A,2026-07-17T22:43:59.049408,15.27575237,.00012114,43.0024,287.8737,273.0808,86.9905,0,U,55331,999,19267,.17570998E-4,.221E-5,0
STARLINK-5491,2023-013B,2026-07-17T21:36:27.197856,15.27575828,.0001321,43.0023,273.6507,268.3054,91.7646,0,U,55332,999,19175,.31281507E-4,.599E-5,0
STARLINK-5493,2023-013C,2026-07-17T22:55:05.163168,15.27575800,.00013357,43.0033,287.9306,276.4550,83.6149,0,U,55333,999,19159,.9019762E-5,-.14E-6,0
STARLINK-5652,2023-013D,2026-07-17T13:24:34.379136,15.27574484,.0000797,43.0004,290.0145,268.3111,91.7649,0,U,55334,999,19153,-.91372E-5,-.513E-5,0
STARLINK-5660,2023-013E,2026-07-17T23:00:38.517696,15.27572300,.00011717,43.0035,287.9572,276.8518,83.2200,0,U,55335,999,19159,-.11436482E-4,-.577E-5,0
STARLINK-5655,2023-013F,2026-07-17T13:19:44.961600,15.27576786,.000141,43.0029,275.2826,268.0656,92.0035,0,U,55336,999,19170,-.33249E-5,-.354E-5,0
STARLINK-5667,2023-013G,2026-07-17T04:37:23.970720,15.27572135,.0001802,43.0031,277.7644,273.2152,86.8493,0,U,55337,999,19164,.19868626E-4,.284E-5,0
STARLINK-5658,2023-013H,2026-07-17T05:50:27.023712,15.27593409,.0000965,43.0009,292.0445,239.6986,120.3770,0,U,55338,999,19148,.25351E-4,.436E-5,0
STARLINK-5671,2023-013J,2026-07-17T22:58:04.682496,15.27575692,.00011449,43.0017,291.3547,276.3380,83.7342,0,U,55339,999,19155,-.1377443E-4,-.641E-5,0
STARLINK-5675,2023-013K,2026-07-17T08:01:25.490784,15.27576697,.0001638,43.0025,291.0126,273.7964,86.2701,0,U,55340,999,19150,-.1146E-4,-.578E-5,0
STARLINK-5670,2023-013L,2026-07-17T15:19:06.559968,15.27567963,.00016753,43.0034,289.8500,278.3469,81.7193,0,U,55341,999,19154,.25501955E-4,.439E-5,0
STARLINK-5657,2023-013M,2026-07-17T07:33:52.555104,15.27577752,.0001764,43.0050,291.7235,287.7483,72.3176,0,U,55342,999,19149,-.68573E-5,-.451E-5,0
STARLINK-5661,2023-013N,2026-07-17T07:46:37.246080,15.27574258,.0001704,43.0022,290.9321,272.3336,87.7320,0,U,55343,999,19150,.12238E-4,.74E-6,0
STARLINK-5653,2023-013Q,2026-07-17T21:42:00.216288,15.27576519,.00012094,43.0013,273.6685,273.2060,86.8654,0,U,55345,999,19175,-.268822E-5,-.336E-5,0
STARLINK-5631,2023-013R,2026-07-17T15:42:57.337920,15.27575117,.0001828,43.0033,289.1101,276.6088,83.4555,0,U,55346,999,19155,.7385097E-5,-.59E-6,0
STARLINK-5663,2023-013S,2026-07-17T14:06:57.734208,15.27561975,.0001877,43.0021,289.4713,273.5796,86.4841,0,U,55347,999,19154,-.27806E-4,-.1027E-4,0
